CCSDS_OEM_VERS = 2.0  
CREATION_DATE  = 2026-05-08T15:36:25
ORIGINATOR     = ESOC/OPS-GFA                            
 
 



META_START
OBJECT_NAME          = LISA                                    
OBJECT_ID            = -1000                                   
CENTER_NAME          = SUN                     
REF_FRAME            = EME2000 
TIME_SYSTEM          = TCB
START_TIME           = 2036-12-23T00:00:30.346418            
STOP_TIME            = 2047-09-05T19:07:13.293800            
INTERPOLATION        = HERMITE                                 
INTERPOLATION_DEGREE = 7                                       
META_STOP

2037-10-30T18:48:00.683769     1.41943182509004056e+08    4.35483655483405292e+07    1.92194314548182786e+07   -9.59001221937911019e+00    2.59384215451054949e+01    1.09826574413197058e+01   -5.61398691637167925e-06   -1.72226736642013745e-06   -7.60107030886569819e-07
2037-10-31T14:51:49.995860     1.41235881297661543e+08    4.54173225790934712e+07    2.00106910733333454e+07   -9.99454372276817082e+00    2.58113388459293454e+01    1.09266186201054385e+01   -5.58713078800637702e-06   -1.79654510649965691e-06   -7.91560454036055950e-07
2037-11-01T10:55:39.307952     1.40499432115048200e+08    4.72769070499038920e+07    2.07978211281533092e+07   -1.03970935035591356e+01    2.56789032964679507e+01    1.08683133259217772e+01   -5.55911460975085554e-06   -1.87048302603390945e-06   -8.22863648990909695e-07
2037-11-02T06:59:28.620043     1.39733981149598092e+08    4.91267332489144653e+07    2.15806583201185204e+07   -1.07975779440895181e+01    2.55411399979457023e+01    1.08077526453483372e+01   -5.52994318482116301e-06   -1.94406573169539588e-06   -8.54010092971587314e-07
2037-11-03T03:03:17.932135     1.38939680608937979e+08    5.09664173108721077e+07    2.23590401650171764e+07   -1.11959137827638955e+01    2.53980751616261671e+01    1.07449481352896310e+01   -5.49962156903611456e-06   -2.01727788073191096e-06   -8.84993285842471030e-07
2037-11-03T23:07:07.244226     1.38116688682255834e+08    5.27955772883380949e+07    2.31328050236847922e+07   -1.15920181321860412e+01    2.52497361050757370e+01    1.06799118213049464e+01   -5.46815506704865121e-06   -2.09010418307375766e-06   -9.15806750980464892e-07
2037-11-04T19:10:56.556318     1.37265169507208049e+08    5.46138332274080515e+07    2.39017921340444386e+07   -1.19858084968808640e+01    2.50961512483188045e+01    1.06126561958947683e+01   -5.43554922477266148e-06   -2.16252940223251412e-06   -9.46444035611653525e-07
2037-11-05T15:14:45.868409     1.36385293145405680e+08    5.64208072512109727e+07    2.46658416464979574e+07   -1.23772027903323689e+01    2.49373501099714332e+01    1.05431942167819557e+01   -5.40180981798548983e-06   -2.23453835499133047e-06   -9.76898710615980039e-07
2037-11-06T11:18:35.180500     1.35477235570519805e+08    5.82161236544568092e+07    2.54247946640786678e+07   -1.27661193510637325e+01    2.47733633034402665e+01    1.04715393052259316e+01   -5.36694283722358926e-06   -2.30611590991240975e-06   -1.00716436981132150e-06
2037-11-07T07:22:24.492592     1.34541178673046231e+08    5.99994090123026073e+07    2.61784932887757085e+07   -1.31524769574856588e+01    2.46042225332736528e+01    1.03977053444081164e+01   -5.33095446880878335e-06   -2.37724698462238208e-06   -1.03723462869958699e-06
2037-11-08T03:26:13.804683     1.33577310285769805e+08    6.17702923068058565e+07    2.69267806754406318e+07   -1.35361948412392081e+01    2.44299605917518079e+01    1.03217066779268336e+01   -5.29385107205222192e-06   -2.44791654188818908e-06   -1.06710312268030850e-06
2037-11-08T23:33:17.536172     1.32583118151315227e+08    6.35331196219845712e+07    2.76714925368562713e+07   -1.39182145042338927e+01    2.42501217624962848e+01    1.02433448661181323e+01   -5.25553535729127446e-06   -2.51829803785133213e-06   -1.09684313049463166e-06
2037-11-09T19:40:21.267661     1.31561360196326301e+08    6.52827381933132708e+07    2.84104513383105136e+07   -1.42974190640602323e+01    2.40652034410145745e+01    1.01628369389716280e+01   -5.21611247789935520e-06   -2.58818555004502228e-06   -1.12636760238343586e-06
2037-11-10T15:47:24.999150     1.30512243213299826e+08    6.70187814793750048e+07    2.91435022319452800e+07   -1.46737285999868767e+01    2.38752419418194961e+01    1.00801987341078298e+01   -5.17558976267921367e-06   -2.65756421907190599e-06   -1.15567025361320780e-06
2037-11-11T11:54:28.730639     1.29435979728582442e+08    6.87408855602101833e+07    2.98704915130185485e+07   -1.50470637290775109e+01    2.36802746537301800e+01    9.99544654349080908e+00   -5.13397473730309427e-06   -2.72641923961815477e-06   -1.18474482319799197e-06
2037-11-12T08:01:32.462128     1.28332787993921652e+08    7.04486892555497438e+07    3.05912666701476686e+07   -1.54173456210671169e+01    2.34803400354363276e+01    9.90859711148418931e+00   -5.09127514070006838e-06   -2.79473587439587738e-06   -1.21358507992234507e-06
2037-11-13T04:08:36.193617     1.27202891962032899e+08    7.21418342233822048e+07    3.13056764271143489e+07   -1.57844960142949695e+01    2.32754776101295242e+01    9.81966763250409969e+00   -5.04749893795403969e-06   -2.86249946600135831e-06   -1.24218482746455444e-06
2037-11-14T00:15:39.925106     1.26046521249407843e+08    7.38199650430752337e+07    3.20135707780413441e+07   -1.61484372324454739e+01    2.30657279593511291e+01    9.72867574833362525e+00   -5.00265432971645457e-06   -2.92969544669305155e-06   -1.27053790862178870e-06
2037-11-14T20:22:43.656595     1.24863911089596123e+08    7.54827292872548699e+07    3.27148010177435055e+07   -1.65090922018442541e+01    2.28511327162074238e+01    9.63563954516384236e+00   -4.95674975812462204e-06   -2.99630934608413475e-06   -1.29863820863486776e-06
2037-11-15T16:29:47.388084     1.23655302280192420e+08    7.71297775866457075e+07    3.34092197690559514e+07   -1.68663844690568503e+01    2.26317345581029237e+01    9.54057755042653000e+00   -4.90979390924298815e-06   -3.06232679675947907e-06   -1.32647965761702849e-06
2037-11-16T12:36:51.119573     1.22420941126761511e+08    7.87607636920750141e+07    3.40966810089419484e+07   -1.72202382185373999e+01    2.24075771991424979e+01    9.44350872948365527e+00   -4.86179571199758711e-06   -3.12773353780031414e-06   -1.35405623207933007e-06
2037-11-17T08:43:54.851062     1.21161079386933178e+08    8.03753445378441513e+07    3.47770400951832086e+07   -1.75705782900746961e+01    2.21787053823531757e+01    9.34445248223871694e+00   -4.81276433364646741e-06   -3.19251541624098336e-06   -1.38136195556341453e-06
2037-11-18T04:50:58.582551     1.19875974217899278e+08    8.19731803106704205e+07    3.54501537954553068e+07   -1.79173301957829523e+01    2.19451648718763579e+01    9.24342863973506290e+00   -4.76270917174602222e-06   -3.25665838643338072e-06   -1.40839089837077698e-06
2037-11-19T00:58:02.314040     1.18565888130545169e+08    8.35539345284022540e+07    3.61158803205909133e+07   -1.82604201363846990e+01    2.17070024452812405e+01    9.14045746080622834e+00   -4.71163984262906111e-06   -3.32014850733054494e-06   -1.43513717639395926e-06
2037-11-19T21:05:06.045529     1.17231088953447878e+08    8.51172741327116489e+07    3.67740793638333380e+07   -1.85997750165331581e+01    2.14642658861502014e+01    9.03555962884346187e+00   -4.65956616639442144e-06   -3.38297193769079539e-06   -1.46159494904973683e-06
2037-11-20T17:12:09.777017     1.15871849809972763e+08    8.66628695999658257e+07    3.74246121478834450e+07   -1.89353224589214690e+01    2.12170039770869927e+01    8.92875624874545260e+00   -4.60649814844155861e-06   -3.44511492921129544e-06   -1.48775841631860604e-06
2037-11-21T13:19:13.508506     1.14488449111701384e+08    8.81903950744825751e+07    3.80673414815421253e+07   -1.92669908169261319e+01    2.09652664932983654e+01    8.82006884411540426e+00   -4.55244595740995926e-06   -3.50656381753148814e-06   -1.51362181486446418e-06
2037-11-22T09:31:13.376375     1.13075367505185321e+08    8.97056608475625664e+07    3.87047108614355624e+07   -1.95960410176429569e+01    2.07080477418092279e+01    8.70906352813803686e+00   -4.49719342339817269e-06   -3.56755220705725933e-06   -1.53928341171964225e-06
2037-11-23T05:43:13.244244     1.11638504372767538e+08    9.12020610979803950e+07    3.93339403784859106e+07   -1.99210379002307079e+01    2.04464202700010773e+01    8.59620348469316120e+00   -4.44097019947938033e-06   -3.62781374627963598e-06   -1.56463107629826390e-06
2037-11-24T01:55:13.112113     1.10178157036347345e+08    9.26792771876206696e+07    3.99548960049151108e+07   -2.02419112803478001e+01    2.01804374192084524e+01    8.48151174715176914e+00   -4.38378742917731565e-06   -3.68733511497523090e-06   -1.58965919767324583e-06
2037-11-24T22:07:12.979982     1.08694627869059846e+08    9.41369943360478282e+07    4.05674453785917759e+07   -2.05585917906757842e+01    1.99101534958330859e+01    8.36501175533485508e+00   -4.32565644184778406e-06   -3.74610309454931232e-06   -1.61436220965640689e-06
2037-11-25T18:19:12.847851     1.07188224256174535e+08    9.55749017388673872e+07    4.11714578531979769e+07   -2.08710108949175250e+01    1.96356237632931112e+01    8.24672735197454188e+00   -4.26658876543973435e-06   -3.80410458566882117e-06   -1.63873459841875299e-06
2037-11-26T14:31:12.715720     1.05659258544939816e+08    9.69926926623759866e+07    4.17668045382439047e+07   -2.11791009026172325e+01    1.93569044327947424e+01    8.12668277866681343e+00   -4.20659613643106867e-06   -3.86132662307387006e-06   -1.66277090887808022e-06
2037-11-27T10:43:12.583589     1.04108047985534161e+08    9.83900645195385516e+07    4.23533583310862482e+07   -2.14827949846004529e+01    1.90740526531292645e+01    8.00490267140447465e+00   -4.14569050694356849e-06   -3.91775638757388798e-06   -1.68646574985646278e-06
